# Made by eph2tle, compiled Oct  9 2023 15:42:32
# Run at Fri Oct 13 14:01:03 2023
#
#    The following TLEs (Two-Line Elements) were generated by fitting
# a numerically-integrated ephemeris,  based on the orbit given below,
# to the SDP4/SGP4 models.  Each TLE is good for the interval between
# its epoch and the epoch of the subsequent TLE (usually one day).
# The maximum deviation between the numerically integrated ephemerides
# and the TLE-based ephemeris, in kilometers,  is given for each TLE
# as the "worst residual".
#
#    This fitting is done using the 'eph2tle' code packaged with Find_Orb.
# The code has details on how the TLEs were computed :
#
#    https://github.com/Bill-Gray/find_orb/eph2tle.cpp
#
#    Be warned:  the error given is that between the numerically
# integrated ephems and the TLE model.  There will usually be at
# least some additional difference between the ephems and the actual
# motion of the satellite,  especially if the ephemerides are based
# on a short arc.  If the following orbital elements say something
# like "[based on] 10 observations 2015 Jan. 1-13",  and the TLEs
# are for 2015 May,  the extrapolation may be tenuous at best.  If
# your application requires a specific level of accuracy,  you may
# want to contact me;  I can give you some idea as to the fit of the
# underlying data (and possibly TLEs based on newer data).
#
#   You can usually find the underlying observational data,  and the
# fitted orbit,  residuals,  ephemerides,  and sometimes some comments
# about the object,  among the pages listed at
#
#    https://www.projectpluto.com/pluto/mpecs/pseudo.htm
#
#    WARNING:  for this object,  "normal" TLEs cannot be fitted.  (This
# usually means an object with an hyperbolic or nearly-parabolic orbit.)
# For this and similar cases,   an alternative model is used,  in which
# most of the traditional TLE data is replaced by six signed 8-digit hex
# numbers.  These six numbers are a state vector,  numerically integrated
# using a simplified force model.  This is necessary for objects at L2 or
# L1,  and sometimes for objects in high orbits where the SDP4/SGP4 model
# fails.  Some documentation is in 'get_el.cpp' in the source code at
# https://www.github.com/Bill-Gray/sat_code ; look for 'hex' in that file,
# with the actual integration done in 'sdp4.cpp'.  But be aware:  it's my
# own extension,  doesn't work with other code,  and is therefore used
# only when necessary.
#
#    Also,  if you use a TLE outside the "correct" time range (between
# its MJD and that of the next TLE),  all bets are off.  I've carefully
# computed and minimized the worst error over the "correct" time frame,
# but the ephemeris may (or may not) diverge wildly outside of it.
#
# Ephem range: 60224.000000 60258.000000 1.000000
# Created Fri Oct 13 13:59:51 2023
# Ephemeris start:  7 Oct 2023  0:00:00
# Ephemeris end:   10 Nov 2023  0:00:00
# Times are all TDT
# Positions/velocities are in equatorial J2000
# Orbital elements:  Kuiper test Centaur
#    Perigee 2023 Oct 6.754448 +/- 0.374 TT = 18:06:24.2 (JD 2460224.254448)
# Epoch 2023 Oct  7.0 TT = JDT 2460224.5                           Find_Orb
# q  6855.011567 +/- 178              (J2000 equator)
# H   25.79 G 0.15                    Peri.  243.552326 +/- 1.7
#                                     Node    98.428883 +/- 0.40
# e   1.48598026 +/- 0.0453           Incl.   29.974495 +/- 0.9
# From 27 observations 2023 Oct. 12-13 (23.9 hr); mean residual 0".268
#
# 1 NoradU COSPAR   Epoch.epoch     dn/dt/2  d2n/dt2/6 BSTAR    T El# C
# 2 NoradU Inclina RAAscNode Eccent  ArgPeri MeanAno  MeanMotion Rev# C

# Worst residual: 11.74 km
# MJD 60224.000000 (2023 Oct  7  0:00)
Kuiper test Centaur
1 58015U 23154C   23279.99919926 -000O42E6 +00263P61 +0006UBGFH 21125
2 58015                          -000D2S4N +000VUJV6 +0004MO6J     04

# Worst residual: 26.02 km
# MJD 60225.000000 (2023 Oct  8  0:00)
Kuiper test Centaur
1 58015U 23154C   23280.99919926 -003OBK7Y +009F1T03 +0019KXFHH 21124
2 58015                          -000CB15T +000TKXWW +0004FNWF     02

# Worst residual: 1.58 km
# MJD 60226.000000 (2023 Oct  9  0:00)
Kuiper test Centaur
1 58015U 23154C   23281.99919926 -006M13NB +00GH00D2 +002BOETPH 21126
2 58015                          -000C6LO4 +000T9APR +0004E0D4     09

# Worst residual: 0.92 km
# MJD 60227.000000 (2023 Oct 10  0:00)
Kuiper test Centaur
1 58015U 23154C   23282.99919926 -009J0PQ4 +00NH3175 +003DHBSEH 21125
2 58015                          -000C4H2W +000T3UVA +0004D2VR     07

# Worst residual: 1.06 km
# MJD 60228.000000 (2023 Oct 11  0:00)
Kuiper test Centaur
1 58015U 23154C   23283.99919926 -00CFL2U6 +00UG3L79 +004F3FPUH 21128
2 58015                          -000C2Y8Q +000T03EV +0004CEBF     09

# Worst residual: 1.35 km
# MJD 60229.000000 (2023 Oct 12  0:00)
Kuiper test Centaur
1 58015U 23154C   23284.99919926 -00FBT62H +011EANXU +005GK6Y4H 21120
2 58015                          -000C1L8P +000SWXSB +0004BTUY     05

# Worst residual: 1.71 km
# MJD 60230.000000 (2023 Oct 13  0:00)
Kuiper test Centaur
1 58015U 23154C   23285.99919926 -00I7PJG4 +018BRMF9 +006HWCT9H 21120
2 58015                          -000C07UZ +000SU0E7 +0004BBW7     07

# Worst residual: 2.07 km
# MJD 60231.000000 (2023 Oct 14  0:00)
Kuiper test Centaur
1 58015U 23154C   23286.99919926 -00L39P73 +01F8JNJR +007J4FXHH 21129
2 58015                          -000BYR2A +000SR5G8 +0004AVUI     01

# Worst residual: 2.41 km
# MJD 60232.000000 (2023 Oct 15  0:00)
Kuiper test Centaur
1 58015U 23154C   23287.99919926 -00NYGLV8 +01M4MZA1 +008K8VXAH 21128
2 58015                          -000BX55W +000SOA82 +0004AHJD     06

# Worst residual: 2.73 km
# MJD 60233.000000 (2023 Oct 16  0:00)
Kuiper test Centaur
1 58015U 23154C   23288.99919926 -00QT8WM5 +01T01CKG +009LA3MKH 21126
2 58015                          -000BVD51 +000SLDC1 +0004A4XO     07

# Worst residual: 3.02 km
# MJD 60234.000000 (2023 Oct 17  0:00)
Kuiper test Centaur
1 58015U 23154C   23289.99919926 -00TNL1GY +01ZUQ9HZ +00AM8HS8H 21127
2 58015                          -000BTEBR +000SIE0Z +00049U1F     06

# Worst residual: 3.32 km
# MJD 60235.000000 (2023 Oct 18  0:00)
Kuiper test Centaur
1 58015U 23154C   23290.99919926 -00WHFBKJ +026OP30L +00BN4H2IH 21129
2 58015                          -000BR88B +000SFBTV +00049KTR     01

# Worst residual: 3.63 km
# MJD 60236.000000 (2023 Oct 19  0:00)
Kuiper test Centaur
1 58015U 23154C   23291.99919926 -00ZAPY3R +02DHX2J1 +00CNYFQHH 21121
2 58015                          -000BOUEZ +000SC6DL +00049D7W     08

# Worst residual: 3.99 km
# MJD 60237.000000 (2023 Oct 20  0:00)
Kuiper test Centaur
1 58015U 23154C   23292.99919926 -0123F0CL +02KADEGS +00DOQR3TH 21125
2 58015                          -000BM8ED +000S8XC3 +0004972W     03

# Worst residual: 4.40 km
# MJD 60238.000000 (2023 Oct 21  0:00)
Kuiper test Centaur
1 58015U 23154C   23293.99919926 -014VGGYU +02R216DA +00EPHR1RH 21122
2 58015                          -000BJDKY +000S5KD9 +0004927M     08

# Worst residual: 4.89 km
# MJD 60239.000000 (2023 Oct 22  0:00)
Kuiper test Centaur
1 58015U 23154C   23294.99919926 -017MS4OO +02XSVEV9 +00FQ7PIDH 21126
2 58015                          -000BG96F +000S2353 +00048YDA     02

# Worst residual: 5.43 km
# MJD 60240.000000 (2023 Oct 23  0:00)
Kuiper test Centaur
1 58015U 23154C   23295.99919926 -01ADBKEU +034IV1TH +00GQWU79H 21122
2 58015                          -000BCU5L +000RYHCQ +00048VA7     06

# Worst residual: 5.99 km
# MJD 60241.000000 (2023 Oct 24  0:00)
Kuiper test Centaur
1 58015U 23154C   23296.99919926 -01D302V0 +03B7YYU8 +00HRLAJPH 21122
2 58015                          -000B936F +000RUQSW +00048SPA     02

# Worst residual: 6.48 km
# MJD 60242.000000 (2023 Oct 25  0:00)
Kuiper test Centaur
1 58015U 23154C   23297.99919926 -01FRQLTA +03HW60JX +00IS961BH 21125
2 58015                          -000B4YL6 +000RQVH9 +00048QFX     03

# Worst residual: 6.81 km
# MJD 60243.000000 (2023 Oct 26  0:00)
Kuiper test Centaur
1 58015U 23154C   23298.99919926 -01IFFNDF +03OJF2T7 +00JSWJ4QH 21127
2 58015                          -000B0EFA +000RMVP6 +00048OGM     00

# Worst residual: 6.95 km
# MJD 60244.000000 (2023 Oct 27  0:00)
Kuiper test Centaur
1 58015U 23154C   23299.99919926 -01L1Z7S0 +03V5P60W +00KTJGTMH 21124
2 58015                          -000AVCJC +000RIS7Y +00048MXN     01

# Worst residual: 6.95 km
# MJD 60245.000000 (2023 Oct 28  0:00)
Kuiper test Centaur
1 58015U 23154C   23300.99919926 -01NN8SH9 +041QZJF0 +00LU64QTH 21127
2 58015                          -000APQRI +000REMBX +00048MAZ     04

# Worst residual: 6.95 km
# MJD 60246.000000 (2023 Oct 29  0:00)
Kuiper test Centaur
1 58015U 23154C   23301.99919926 -01Q73D15 +048B9TLM +00MUSTKNH 21123
2 58015                          -000AJJ5V +000RAFU2 +00048NAJ     01

# Worst residual: 7.05 km
# MJD 60247.000000 (2023 Oct 30  0:00)
Kuiper test Centaur
1 58015U 23154C   23302.99919926 -01SPDHWE +04EUK4NV +00NVG18MH 21124
2 58015                          -000ACO7K +000R6AY3 +00048QUG     00

# Worst residual: 7.32 km
# MJD 60248.000000 (2023 Oct 31  0:00)
Kuiper test Centaur
1 58015U 23154C   23303.99919926 -01V5XGOO +04LCV504 +00OW4IJZH 21120
2 58015                          -000A54XB +000R2A4D +00048Y20     01

# Worst residual: 7.70 km
# MJD 60249.000000 (2023 Nov  1  0:00)
Kuiper test Centaur
1 58015U 23154C   23304.99919926 -01XKLCWK +04RU84KT +00PWVA0PH 21125
2 58015                          -0009WWVH +000QYFV7 +00049A22     05

# Worst residual: 8.08 km
# MJD 60250.000000 (2023 Nov  2  0:00)
Kuiper test Centaur
1 58015U 23154C   23305.99919926 -01ZX78GB +04YAOYPL +00QXPLUAH 21129
2 58015                          -0009O03I +000QUULN +00049RYA     07

# Worst residual: 8.40 km
# MJD 60251.000000 (2023 Nov  3  0:00)
Kuiper test Centaur
1 58015U 23154C   23306.99919926 -0227L770 +054QC2XU +00RYP1F6H 21123
2 58015                          -0009EEZO +000QRKKU +0004AGRG     05

# Worst residual: 8.61 km
# MJD 60252.000000 (2023 Nov  4  0:00)
Kuiper test Centaur
1 58015U 23154C   23307.99919926 -024FLHJE +05B58FGB +00SZVCKKH 21125
2 58015                          -0009466Y +000QONV2 +0004BDEV     03

# Worst residual: 8.73 km
# MJD 60253.000000 (2023 Nov  5  0:00)
Kuiper test Centaur
1 58015U 23154C   23308.99919926 -026L2I5J +05HJHFIT +00U1AIPCH 21123
2 58015                          -0008TAI4 +000QM6CK +0004CIQN     04

# Worst residual: 8.83 km
# MJD 60254.000000 (2023 Nov  6  0:00)
Kuiper test Centaur
1 58015U 23154C   23309.99919926 -028NUV3T +05NX6Y6F +00V30Q4UH 21120
2 58015                          -0008HSTV +000QK5SO +0004DXIB     09

# Worst residual: 8.97 km
# MJD 60255.000000 (2023 Nov  7  0:00)
Kuiper test Centaur
1 58015U 23154C   23310.99919926 -02ANTEQ7 +05UAH96E +00W54BJ7H 21120
2 58015                          -00085Q6D +000QINUX +0004FMFE     05

# Worst residual: 9.18 km
# MJD 60256.000000 (2023 Nov  8  0:00)
Kuiper test Centaur
1 58015U 23154C   23311.99919926 -02CKT8G9 +060NH07T +00X7NTIIH 21125
2 58015                          -0007T3NE +000QHQ40 +0004HM5X     05

# Worst residual: 9.46 km
# MJD 60257.000000 (2023 Nov  9  0:00)
Kuiper test Centaur
1 58015U 23154C   23312.99919926 -02EEPPRF +0670B89I +00YAPWARH 21129
2 58015                          -0007FYH2 +000QHE1V +0004JXCM     06
Avg worst resid: 6.26 km
Worst residual in entire run: 26.02 km on MJD 60225.0
       1     3     10    30    100   300   1K    3K    10K   km
     1     7    24     2     0     0     0     0     0     0
